IRIDIUM 921             
1 24873U 97034E   24246.52688821  .00059612  00000+0  12084-2 0  9994
2 24873  86.3733 249.6277 0001445  81.9485 278.1936 15.46163417487106
IRIDIUM 26              
1 24903U 97043A   24246.92986038  .00001700  00000+0  57275-3 0  9990
2 24903  86.3939 231.1220 0002272  84.6201 275.5255 14.36541209415492
IRIDIUM 22              
1 24907U 97043E   24246.90641055  .00001567  00000+0  53926-3 0  9999
2 24907  86.3936 234.4296 0002344  90.2501 269.8964 14.35419735415555
DUMMY MASS 1            
1 24925U 97048A   24246.81933624  .00001280  00000+0  14198-3 0  9990
2 24925  86.3291 268.1060 0009221  86.8773 273.3507 14.86383601462435
IRIDIUM 29              
1 24944U 97051A   24246.95456497  .00001356  00000+0  46163-3 0  9999
2 24944  86.3898 264.2875 0002503  93.6509 266.4974 14.35868088412043
IRIDIUM 33              
1 24946U 97051C   24246.56685503  .00000877  00000+0  30433-3 0  9990
2 24946  86.3813 263.6971 0005980 306.8788  53.1859 14.34480218411509
IRIDIUM 28              
1 24948U 97051E   24246.76754326  .00001310  00000+0  43708-3 0  9996
2 24948  86.3905 262.0430 0001948  83.2018 276.9401 14.36822619412560
